STARLINK-30222
1 57409U 23102F   26061.16668981  .00103598  00000+0  62588-2 0  9999
2 57409  42.9994 289.5230 0001160 340.1213 157.7686 15.09595144  5823
